STARLINK-32503          
1 62157U 24224U   26068.29416158  .00024277  00000+0  88871-3 0  9999
2 62157  42.9915 167.7568 0000297  31.6864 328.4006 15.27584050 71906
AL MUNTHER              
1 63240U 25052AG  26068.64540749  .00017933  00000+0  65015-3 0  9992
2 63240  97.4001 323.9152 0008027 130.7043 229.4895 15.28381521 54798
